INTELSAT 25 (IS-25)     
1 33153U 08034A   24228.75296951 -.00000219  00000+0  00000+0 0  9993
2 33153   0.9680  88.6863 0003181  60.6851  54.8337  1.00272248 58973
BADR-6                  
1 33154U 08034B   24229.13174514  .00000149  00000+0  00000+0 0  9998
2 33154   1.1092  86.5579 0006683  38.7886 273.3204  1.00272561 59036
ECHOSTAR 11             
1 33207U 08035A   24228.59883483 -.00000050  00000+0  00000+0 0  9991
2 33207   0.0583 276.5957 0003058 212.5488 300.9159  1.00271887 44481
SUPERBIRD-C2            
1 33274U 08038A   24228.89578219 -.00000247  00000+0  00000+0 0  9997
2 33274   0.6197  90.1589 0001245 107.5566 233.4768  1.00270912 99001
AMC-21                  
1 33275U 08038B   24229.18868829  .00000039  00000+0  00000+0 0  9998
2 33275   1.2065  89.1116 0002686  60.2989 118.6822  1.00271460 58741
INMARSAT 4-F3           
1 33278U 08039A   24228.60878368 -.00000134  00000+0  00000+0 0  9994
2 33278   3.7498  27.8659 0002712 129.3168 288.4665  1.00270974 58546
NIMIQ 4                 
1 33373U 08044A   24228.59979413 -.00000214  00000+0  00000+0 0  9996
2 33373   0.0176  88.6298 0001662  42.7993 326.9762  1.00271929 58262
GALAXY 19 (G-19)        
1 33376U 08045A   24228.90466000 -.00000134  00000+0  00000+0 0  9999
2 33376   0.0591 275.1907 0002945 225.8047  52.4762  1.00271606 58189
ASTRA 1M                
1 33436U 08057A   24228.76297712  .00000125  00000+0  00000+0 0  9994
2 33436   0.0120  72.4905 0005931  67.3766 118.6485  1.00269410 39013
EUTELSAT HOTBIRD 13C    
1 33459U 08065A   24228.88660449 -.00000096  00000+0  00000+0 0  9990
2 33459   1.2133  86.8032 0004430  60.0889 124.5349  1.00272335 57525
EXPRESS-AM44            
1 33595U 09007A   24226.83244816 -.00000080  00000+0  00000+0 0  9990
2 33595   1.7213  86.6554 0004492  47.3985 117.3548  1.00272066 45541
NSS-9                   
1 33749U 09008A   24228.72399098  .00000077  00000+0  00000+0 0  9990
2 33749   0.0668 282.0582 0002371 208.5842 277.6815  1.00270731 56791
EUTELSAT 33E            
1 33750U 09008B   24228.66854201 -.00000144  00000+0  00000+0 0  9993
2 33750   0.9331  88.2292 0004983  56.5302 325.0991  1.00271525 56724
TELSTAR 11N             
1 34111U 09009A   24228.39404229 -.00000244  00000+0  00000+0 0  9998
2 34111   0.0172 106.0004 0002548  22.6636 299.9295  1.00270161 56696
WGS F2 (USA 204)        
1 34713U 09017A   24226.23243876  .00000078  00000+0  00000+0 0  9999
2 34713   0.0188  86.0958 0000327  66.3874 310.8651  1.00272467 38878
SES-7 (PROTOSTAR 2)     
1 34941U 09027A   24228.87281204 -.00000340  00000+0  00000+0 0  9995
2 34941   0.0265  68.7864 0000855 146.7651 171.6748  1.00269660 55906
MEASAT-3A               
1 35362U 09032A   24228.92306324 -.00000106  00000+0  00000+0 0  9996
2 35362   0.0397 258.9180 0002119 231.1571 326.9790  1.00271061 55516
GOES 14                 
1 35491U 09033A   24226.66305861 -.00000056  00000+0  00000+0 0  9998
2 35491   0.0735 257.2217 0004242 243.1936 312.4638  1.00273713 55365
FM-5                    
1 35493U 09034A   24229.14841043 -.00000196  00000+0  00000+0 0  9999
2 35493   0.0469 273.4633 0000281 152.4270 226.4192  1.00272391 55253
TERRESTAR-1             
1 35496U 09035A   24228.59770101 -.00000052  00000+0  00000+0 0  9998
2 35496   4.5407  47.7758 0002681 101.4015 279.4734  1.00272169 55437
ASIASAT 5               
1 35696U 09042A   24226.85112141 -.00000297  00000+0  00000+0 0  9990
2 35696   0.0224 103.1720 0001377  20.3347 246.1502  1.00269809 54969
JCSAT-12 (JCSAT-RA)     
1 35755U 09044A   24228.84528705 -.00000323  00000+0  00000+0 0  9996
2 35755   0.0143 103.1382 0002049  10.1243 287.8151  1.00269779 54887
OPTUS D3                
1 35756U 09044B   24229.14784943 -.00000143  00000+0  00000+0 0  9999
2 35756   0.1580  80.8828 0003219  43.4129  49.9549  1.00271293 54918
NIMIQ 5                 
1 35873U 09050A   24228.53013712 -.00000251  00000+0  00000+0 0  9997
2 35873   0.0612 274.2216 0002932 220.4325 307.9252  1.00271597 54611
AMAZONAS 2              
1 35942U 09054A   24229.22712558 -.00000279  00000+0  00000+0 0  9999
2 35942   0.0732 106.2813 0005554  50.4638 189.3230  1.00273697 54463
COMSATBW-1              
1 35943U 09054B   24228.92479782  .00000029  00000+0  00000+0 0  9997
2 35943   0.0301  79.1508 0002858  77.8502 203.7423  1.00272664 54572
NSS-12                  
1 36032U 09058A   24228.93035517  .00000076  00000+0  00000+0 0  9998
2 36032   0.0659 280.0173 0003637 218.0711 218.6571  1.00270770 54199
THOR 6                  
1 36033U 09058B   24228.75897407 -.00000004  00000+0  00000+0 0  9995
2 36033   0.0284 230.7546 0001931 268.9793  97.2811  1.00272213 54281
INTELSAT 14 (IS-14)     
1 36097U 09064A   24228.75027182 -.00000268  00000+0  00000+0 0  9999
2 36097   0.0076  45.9057 0002563  97.2129  46.6156  1.00273230 53886
EUTELSAT 36B            
1 36101U 09065A   24229.16299293  .00000160  00000+0  00000+0 0  9996
2 36101   0.0694 346.5902 0005457 154.0951 278.9427  1.00268766 54090
INTELSAT 15 (IS-15)     
1 36106U 09067A   24228.89933102 -.00000180  00000+0  00000+0 0  9999
2 36106   0.0153 101.8170 0002410  41.9243 229.9587  1.00271719 34507
WGS F3 (USA 211)        
1 36108U 09068A   24226.53073365 -.00000252  00000+0  00000+0 0  9997
2 36108   0.0175  86.6715 0000345  42.5359 330.2009  0.99723687 53765
DIRECTV 12              
1 36131U 09075A   24228.60526378 -.00000097  00000+0  00000+0 0  9995
2 36131   0.0191 227.4372 0000336 161.6685  50.5663  1.00269909 39822
BEIDOU-2 G1             
1 36287U 10001A   24226.78407521 -.00000272  00000+0  00000+0 0  9998
2 36287   2.7364  58.8134 0002588 307.5637  19.0429  1.00269919 53429
RADUGA-1M 2             
1 36358U 10002A   24226.84464295 -.00000176  00000+0  00000+0 0  9999
2 36358   1.8654  87.7450 0001623  69.7111 194.4105  1.00272180 43348
SDO                     
1 36395U 10005A   24228.60700943 -.00000087  00000+0  00000+0 0  9993
2 36395  33.2413  96.6641 0000885 184.5032 159.7553  1.00276735 53330
INTELSAT 16 (IS-16)     
1 36397U 10006A   24228.52944094 -.00000238  00000+0  00000+0 0  9992
2 36397   0.0151  85.1569 0002405  72.4059 281.2517  1.00272388 52924
EWS-G2 (GOES 15)        
1 36411U 10008A   24226.84736941  .00000043  00000+0  00000+0 0  9997
2 36411   0.4633 274.6325 0005569 283.8097 131.1461  1.00281722 52900
ECHOSTAR 14             
1 36499U 10010A   24228.58963655  .00000006  00000+0  00000+0 0  9992
2 36499   0.0098 120.2580 0002132  25.0550 272.5360  1.00270786 52815
SES-1                   
1 36516U 10016A   24229.16832385 -.00000110  00000+0  00000+0 0  9995
2 36516   0.0578 281.4961 0002449 218.0437 145.0934  1.00271524 52418
ASTRA 3B                
1 36581U 10021A   24228.86438160  .00000142  00000+0  00000+0 0  9996
2 36581   0.0403  68.0595 0003953  67.6894 163.6606  1.00270259 52152
COMSATBW-2              
1 36582U 10021B   24229.13729969  .00000092  00000+0  00000+0 0  9992
2 36582   0.0446 112.3645 0002377  39.7772 235.4857  1.00270582 52271
BEIDOU-2 G3             
1 36590U 10024A   24226.84351164 -.00000127  00000+0  00000+0 0  9997
2 36590   2.9327  61.4492 0006898 359.9784 284.6125  1.00271240 52024
BADR-5                  
1 36592U 10025A   24228.90674416  .00000149  00000+0  00000+0 0  9990
2 36592   0.0374 123.7964 0005710  26.3219 167.0656  1.00270527 46497
COMS 1                  
1 36744U 10032A   24228.84517971 -.00000341  00000+0  00000+0 0  9997
2 36744   3.0959  83.7154 0000982  66.4167 246.9871  1.00269887 44364
ARABSAT-5A              
1 36745U 10032B   24228.30674314  .00000161  00000+0  00000+0 0  9993
2 36745   0.0501  41.4562 0004816  96.3324 327.3366  1.00276211 51906
ECHOSTAR 15             
1 36792U 10034A   24228.74687794 -.00000276  00000+0  00000+0 0  9999
2 36792   0.0621 275.5145 0002147 208.5145  47.8433  1.00268730 51604
BEIDOU-2 IGSO-1         
1 36828U 10036A   24226.76200356 -.00000112  00000+0  00000+0 0  9995
2 36828  54.2578 169.0463 0041397 206.2665 329.3140  1.00265695 51462
NILESAT 201             
1 36830U 10037A   24228.61458799 -.00000051  00000+0  00000+0 0  9993
2 36830   0.0382 236.6404 0005626 278.7097  23.4269  1.00273338 51648
RASCOM-QAF 1R           
1 36831U 10037B   24228.88105031  .00000023  00000+0  00000+0 0  9999
2 36831   0.0241 117.5135 0005252  29.0697 138.2318  1.00270593 51560
AEHF-1 (USA 214)        
1 36868U 10039A   24226.82845674  .00000031  00000+0  00000+0 0  9996
2 36868   6.5220  76.5887 0003981  53.5662 134.8476  1.00274494 46911
XM-5                    
1 37185U 10053A   24228.59352892 -.00000017  00000+0  00000+0 0  9991
2 37185   0.0382  91.2447 0000621 125.7788 205.9323  1.00272231 50729
BSAT-3B                 
1 37207U 10056B   24228.87457910 -.00000345  00000+0  00000+0 0  9991
2 37207   0.0868 292.7279 0000519 341.2732 115.4593  1.00270824 45380
BEIDOU-2 G4             
1 37210U 10057A   24226.78799123 -.00000102  00000+0  00000+0 0  9990
2 37210   1.9791  69.4228 0005477 151.2626 185.7701  1.00273150 50541
SKYTERRA 1              
1 37218U 10061A   24228.60633873 -.00000112  00000+0  00000+0 0  9996
2 37218   3.7281  48.8068 0001939 120.6568 271.9864  1.00271872 50479
HYLAS 1                 
1 37237U 10065A   24228.62546001 -.00000120  00000+0  00000+0 0  9998
2 37237   3.9234  81.1904 0001932  56.9227 210.2705  1.00271863   166
INTELSAT 17 (IS-17)     
1 37238U 10065B   24228.92479782  .00000003  00000+0  00000+0 0  9992
2 37238   0.0090 125.1873 0002510  32.9107 205.6213  1.00271988 46512
BEIDOU-2 IGSO-2         
1 37256U 10068A   24226.57620281 -.00000164  00000+0  00000+0 0  9995
2 37256  48.7725 280.1218 0040334 216.4093 140.8879  1.00285500 50046
EUTELSAT KA-SAT 9A      
1 37258U 10069A   24229.13729969  .00000066  00000+0  00000+0 0  9996
2 37258   0.0813 286.5171 0002721 153.2684 303.6300  1.00270291 50103
